CTC1_L_00538008-07
1 29828U 26733UO  26070.40839120  .00000000  00000+0  00000-0 0  9991
2 29828  99.3000  84.0000 0000000   0.0000 312.0000 13.69880518    10
CTC1_L_00538008-08
1 29829U 24905AY  26070.40839120  .00000000  00000+0  00000-0 0  9991
2 29829  99.3000  84.0000 0000000   0.0000 357.0000 13.69880518    10
CTC1_L_00538009-01
1 29830U 22045XN  26070.40839120  .00000000  00000+0  00000-0 0  9996
2 29830  99.3000  96.0000 0000000   0.0000  48.0000 13.69880518    12
CTC1_L_00538009-02
1 29831U 22284GW  26070.40839120  .00000000  00000+0  00000-0 0  9992
2 29831  99.3000  96.0000 0000000   0.0000  93.0000 13.69880518    13
CTC1_L_00538009-03
1 29832U 26284ZQ  26070.40839120  .00000000  00000+0  00000-0 0  9997
2 29832  99.3000  96.0000 0000000   0.0000 138.0000 13.69880518    14
CTC1_L_00538009-04
1 29833U 22829ZQ  26070.40839120  .00000000  00000+0  00000-0 0  9999
2 29833  99.3000  96.0000 0000000   0.0000 183.0000 13.69880518    15
CTC1_L_00538009-05
1 29834U 25605HO  26070.40839120  .00000000  00000+0  00000-0 0  9995
2 29834  99.3000  96.0000 0000000   0.0000 228.0000 13.69880518    16
CTC1_L_00538009-06
1 29835U 26268OL  26070.40839120  .00000000  00000+0  00000-0 0  9992
2 29835  99.3000  96.0000 0000000   0.0000 273.0000 13.69880518    17
CTC1_L_00538009-07
1 29836U 22659ZS  26070.40839120  .00000000  00000+0  00000-0 0  9993
2 29836  99.3000  96.0000 0000000   0.0000 318.0000 13.69880518    18
CTC1_L_00538009-08
1 29837U 24561XH  26070.40839120  .00000000  00000+0  00000-0 0  9998
2 29837  99.3000  96.0000 0000000   0.0000   3.0000 13.69880518    10
CTC1_L_00538010-01
1 29838U 25854ZV  26070.40839120  .00000000  00000+0  00000-0 0  9995
2 29838  99.3000 108.0000 0000000   0.0000  54.0000 13.69880518    11
CTC1_L_00538010-02
1 29839U 24469BY  26070.40839120  .00000000  00000+0  00000-0 0  9997
2 29839  99.3000 108.0000 0000000   0.0000  99.0000 13.69880518    11
CTC1_L_00538010-03
1 29840U 24993ED  26070.40839120  .00000000  00000+0  00000-0 0  9991
2 29840  99.3000 108.0000 0000000   0.0000 144.0000 13.69880518    14
CTC1_L_00538010-04
1 29841U 25871SK  26070.40839120  .00000000  00000+0  00000-0 0  9998
2 29841  99.3000 108.0000 0000000   0.0000 189.0000 13.69880518    14
CTC1_L_00538010-05
1 29842U 25512TE  26070.40839120  .00000000  00000+0  00000-0 0  9991
2 29842  99.3000 108.0000 0000000   0.0000 234.0000 13.69880518    16
CTC1_L_00538010-06
1 29843U 25275NP  26070.40839120  .00000000  00000+0  00000-0 0  9998
2 29843  99.3000 108.0000 0000000   0.0000 279.0000 13.69880518    16
CTC1_L_00538010-07
1 29844U 24537AT  26070.40839120  .00000000  00000+0  00000-0 0  9999
2 29844  99.3000 108.0000 0000000   0.0000 324.0000 13.69880518    18
CTC1_L_00538010-08
1 29845U 23731VW  26070.40839120  .00000000  00000+0  00000-0 0  9995
2 29845  99.3000 108.0000 0000000   0.0000   9.0000 13.69880518    19
CTC1_L_00538011-01
1 29846U 23887NG  26070.40839120  .00000000  00000+0  00000-0 0  9998
2 29846  99.3000 120.0000 0000000   0.0000  60.0000 13.69880518    11
CTC1_L_00538011-02
1 29847U 25948PU  26070.40839120  .00000000  00000+0  00000-0 0  9999
2 29847  99.3000 120.0000 0000000   0.0000 105.0000 13.69880518    12
CTC1_L_00538011-03
1 29848U 26324KE  26070.40839120  .00000000  00000+0  00000-0 0  9999
2 29848  99.3000 120.0000 0000000   0.0000 150.0000 13.69880518    13
CTC1_L_00538011-04
1 29849U 25187LU  26070.40839120  .00000000  00000+0  00000-0 0  9996
2 29849  99.3000 120.0000 0000000   0.0000 195.0000 13.69880518    13
CTC1_L_00538011-05
1 29850U 22778GR  26070.40839120  .00000000  00000+0  00000-0 0  9991
2 29850  99.3000 120.0000 0000000   0.0000 240.0000 13.69880518    16
CTC1_L_00538011-06
1 29851U 26978UE  26070.40839120  .00000000  00000+0  00000-0 0  9998
2 29851  99.3000 120.0000 0000000   0.0000 285.0000 13.69880518    16
CTC1_L_00538011-07
1 29852U 22007DL  26070.40839120  .00000000  00000+0  00000-0 0  9998
2 29852  99.3000 120.0000 0000000   0.0000 330.0000 13.69880518    18
CTC1_L_00538011-08
1 29853U 26759ZN  26070.40839120  .00000000  00000+0  00000-0 0  9997
2 29853  99.3000 120.0000 0000000   0.0000  15.0000 13.69880518    19
CTC1_L_00538012-01
1 29854U 23829HA  26070.40839120  .00000000  00000+0  00000-0 0  9993
2 29854  99.3000 132.0000 0000000   0.0000  66.0000 13.69880518    19
CTC1_L_00538012-02
1 29855U 25164OP  26070.40839120  .00000000  00000+0  00000-0 0  9998
2 29855  99.3000 132.0000 0000000   0.0000 111.0000 13.69880518    11
CTC1_L_00538012-03
1 29856U 23098UP  26070.40839120  .00000000  00000+0  00000-0 0  9993
2 29856  99.3000 132.0000 0000000   0.0000 156.0000 13.69880518    11
CTC1_L_00538012-04
1 29857U 22746KT  26070.40839120  .00000000  00000+0  00000-0 0  9993
2 29857  99.3000 132.0000 0000000   0.0000 201.0000 13.69880518    13
CTC1_L_00538012-05
1 29858U 25502WY  26070.40839120  .00000000  00000+0  00000-0 0  9997
2 29858  99.3000 132.0000 0000000   0.0000 246.0000 13.69880518    13
CTC1_L_00538012-06
1 29859U 22478CY  26070.40839120  .00000000  00000+0  00000-0 0  9997
2 29859  99.3000 132.0000 0000000   0.0000 291.0000 13.69880518    14
CTC1_L_00538012-07
1 29860U 26328PS  26070.40839120  .00000000  00000+0  00000-0 0  9997
2 29860  99.3000 132.0000 0000000   0.0000 336.0000 13.69880518    16
CTC1_L_00538012-08
1 29861U 22809XC  26070.40839120  .00000000  00000+0  00000-0 0  9998
2 29861  99.3000 132.0000 0000000   0.0000  21.0000 13.69880518    18
CTC1_L_00538013-01
1 29862U 25110CE  26070.40839120  .00000000  00000+0  00000-0 0  9997
2 29862  99.3000 144.0000 0000000   0.0000  72.0000 13.69880518    18
CTC1_L_00538013-02
1 29863U 24849HV  26070.40839120  .00000000  00000+0  00000-0 0  9996
2 29863  99.3000 144.0000 0000000   0.0000 117.0000 13.69880518    19
CTC1_L_00538013-03
1 29864U 26753EV  26070.40839120  .00000000  00000+0  00000-0 0  9993
2 29864  99.3000 144.0000 0000000   0.0000 162.0000 13.69880518    10
CTC1_L_00538013-04
1 29865U 25379AP  26070.40839120  .00000000  00000+0  00000-0 0  9997
2 29865  99.3000 144.0000 0000000   0.0000 207.0000 13.69880518    11
CTC1_L_00538013-05
1 29866U 22167EB  26070.40839120  .00000000  00000+0  00000-0 0  9990
2 29866  99.3000 144.0000 0000000   0.0000 252.0000 13.69880518    12
CTC1_L_00538013-06
1 29867U 25668AX  26070.40839120  .00000000  00000+0  00000-0 0  9990
2 29867  99.3000 144.0000 0000000   0.0000 297.0000 13.69880518    12
CTC1_L_00538013-07
1 29868U 22062PE  26070.40839120  .00000000  00000+0  00000-0 0  9996
2 29868  99.3000 144.0000 0000000   0.0000 342.0000 13.69880518    14
CTC1_L_00538013-08
1 29869U 23264ND  26070.40839120  .00000000  00000+0  00000-0 0  9992
2 29869  99.3000 144.0000 0000000   0.0000  27.0000 13.69880518    15
CTC1_L_00538014-01
1 29870U 22749GF  26070.40839120  .00000000  00000+0  00000-0 0  9991
2 29870  99.3000 156.0000 0000000   0.0000  78.0000 13.69880518    16
CTC1_L_00538014-02
1 29871U 22621GM  26070.40839120  .00000000  00000+0  00000-0 0  9991
2 29871  99.3000 156.0000 0000000   0.0000 123.0000 13.69880518    18
CTC1_L_00538014-03
1 29872U 22950BF  26070.40839120  .00000000  00000+0  00000-0 0  9997
2 29872  99.3000 156.0000 0000000   0.0000 168.0000 13.69880518    18
CTC1_L_00538014-04
1 29873U 25126EW  26070.40839120  .00000000  00000+0  00000-0 0  9996
2 29873  99.3000 156.0000 0000000   0.0000 213.0000 13.69880518    10
CTC1_L_00538014-05
1 29874U 22115YT  26070.40839120  .00000000  00000+0  00000-0 0  9992
2 29874  99.3000 156.0000 0000000   0.0000 258.0000 13.69880518    10
CTC1_L_00538014-06
1 29875U 26543QT  26070.40839120  .00000000  00000+0  00000-0 0  9992
2 29875  99.3000 156.0000 0000000   0.0000 303.0000 13.69880518    12
CTC1_L_00538014-07
1 29876U 26809GV  26070.40839120  .00000000  00000+0  00000-0 0  9998
2 29876  99.3000 156.0000 0000000   0.0000 348.0000 13.69880518    12
CTC1_L_00538014-08
1 29877U 24896NN  26070.40839120  .00000000  00000+0  00000-0 0  9993
2 29877  99.3000 156.0000 0000000   0.0000  33.0000 13.69880518    14
CTC1_L_00538015-01
1 29878U 26495LM  26070.40839120  .00000000  00000+0  00000-0 0  9991
2 29878  99.3000 168.0000 0000000   0.0000  84.0000 13.69880518    14
CTC1_L_00538015-02
1 29879U 24598CU  26070.40839120  .00000000  00000+0  00000-0 0  9994
2 29879  99.3000 168.0000 0000000   0.0000 129.0000 13.69880518    15
CTC1_L_00538015-03
1 29880U 24557NY  26070.40839120  .00000000  00000+0  00000-0 0  9991
2 29880  99.3000 168.0000 0000000   0.0000 174.0000 13.69880518    17
CTC1_L_00538015-04
1 29881U 23508BA  26070.40839120  .00000000  00000+0  00000-0 0  9997
2 29881  99.3000 168.0000 0000000   0.0000 219.0000 13.69880518    18
CTC1_L_00538015-05
1 29882U 26674WJ  26070.40839120  .00000000  00000+0  00000-0 0  9995
2 29882  99.3000 168.0000 0000000   0.0000 264.0000 13.69880518    19
CTC1_L_00538015-06
1 29883U 22843QH  26070.40839120  .00000000  00000+0  00000-0 0  9990
2 29883  99.3000 168.0000 0000000   0.0000 309.0000 13.69880518    10
CTC1_L_00538015-07
1 29884U 25559PN  26070.40839120  .00000000  00000+0  00000-0 0  9998
2 29884  99.3000 168.0000 0000000   0.0000 354.0000 13.69880518    11
CTC1_L_00538015-08
1 29885U 24662CB  26070.40839120  .00000000  00000+0  00000-0 0  9993
2 29885  99.3000 168.0000 0000000   0.0000  39.0000 13.69880518    12
CTC1_L_00538016-01
1 29886U 22876WL  26070.40839120  .00000000  00000+0  00000-0 0  9999
2 29886  99.3000 180.0000 0000000   0.0000  90.0000 13.69880518    14
CTC1_L_00538016-02
1 29887U 22511VW  26070.40839120  .00000000  00000+0  00000-0 0  9996
2 29887  99.3000 180.0000 0000000   0.0000 135.0000 13.69880518    15
CTC1_L_00538016-03
1 29888U 24971YX  26070.40839120  .00000000  00000+0  00000-0 0  9999
2 29888  99.3000 180.0000 0000000   0.0000 180.0000 13.69880518    16
CTC1_L_00538016-04
1 29889U 25416AJ  26070.40839120  .00000000  00000+0  00000-0 0  9995
2 29889  99.3000 180.0000 0000000   0.0000 225.0000 13.69880518    17
